CCSDS_OMM_VERS = 2.0
CREATION_DATE  = 
ORIGINATOR     = 

OBJECT_NAME    = STARLINK-36937
OBJECT_ID      = 2026-044N
CENTER_NAME    = EARTH
REF_FRAME      = TEME
TIME_SYSTEM    = UTC
MEAN_ELEMENT_THEORY = SGP/SGP4

EPOCH          = 2026-04-05T12:00:02.998944
MEAN_MOTION    = 15.45852096
ECCENTRICITY   = .0001876
INCLINATION    = 97.2856
RA_OF_ASC_NODE = 56.8188
ARG_OF_PERICENTER = 102.2089
MEAN_ANOMALY   = 165.6282

EPHEMERIS_TYPE = 0
CLASSIFICATION_TYPE = U
NORAD_CAT_ID   = 68113
ELEMENT_SET_NO = 999
REV_AT_EPOCH   = 566
BSTAR          = -.45076E-1
MEAN_MOTION_DOT = -.1955941E-1
MEAN_MOTION_DDOT = 0

CCSDS_OMM_VERS = 2.0
CREATION_DATE  = 
ORIGINATOR     = 

OBJECT_NAME    = STARLINK-36229
OBJECT_ID      = 2026-044P
CENTER_NAME    = EARTH
REF_FRAME      = TEME
TIME_SYSTEM    = UTC
MEAN_ELEMENT_THEORY = SGP/SGP4

EPOCH          = 2026-04-05T12:00:02.998944
MEAN_MOTION    = 15.45226019
ECCENTRICITY   = .0001825
INCLINATION    = 97.2857
RA_OF_ASC_NODE = 56.8171
ARG_OF_PERICENTER = 98.9501
MEAN_ANOMALY   = 160.7177

EPHEMERIS_TYPE = 0
CLASSIFICATION_TYPE = U
NORAD_CAT_ID   = 68114
ELEMENT_SET_NO = 999
REV_AT_EPOCH   = 571
BSTAR          = -.45959E-1
MEAN_MOTION_DOT = -.1952219E-1
MEAN_MOTION_DDOT = 0

CCSDS_OMM_VERS = 2.0
CREATION_DATE  = 
ORIGINATOR     = 

OBJECT_NAME    = STARLINK-36392
OBJECT_ID      = 2026-044Q
CENTER_NAME    = EARTH
REF_FRAME      = TEME
TIME_SYSTEM    = UTC
MEAN_ELEMENT_THEORY = SGP/SGP4

EPOCH          = 2026-04-05T12:00:02.998944
MEAN_MOTION    = 15.47579239
ECCENTRICITY   = .0002219
INCLINATION    = 97.2857
RA_OF_ASC_NODE = 56.7933
ARG_OF_PERICENTER = 104.0277
MEAN_ANOMALY   = 112.8668

EPHEMERIS_TYPE = 0
CLASSIFICATION_TYPE = U
NORAD_CAT_ID   = 68115
ELEMENT_SET_NO = 999
REV_AT_EPOCH   = 571
BSTAR          = -.43917E-1
MEAN_MOTION_DOT = -.2016289E-1
MEAN_MOTION_DDOT = 0

CCSDS_OMM_VERS = 2.0
CREATION_DATE  = 
ORIGINATOR     = 

OBJECT_NAME    = STARLINK-36805
OBJECT_ID      = 2026-044R
CENTER_NAME    = EARTH
REF_FRAME      = TEME
TIME_SYSTEM    = UTC
MEAN_ELEMENT_THEORY = SGP/SGP4

EPOCH          = 2026-04-05T12:00:02.998944
MEAN_MOTION    = 15.49653906
ECCENTRICITY   = .0002087
INCLINATION    = 97.2855
RA_OF_ASC_NODE = 56.8072
ARG_OF_PERICENTER = 124.9114
MEAN_ANOMALY   = 125.2607

EPHEMERIS_TYPE = 0
CLASSIFICATION_TYPE = U
NORAD_CAT_ID   = 68116
ELEMENT_SET_NO = 999
REV_AT_EPOCH   = 571
BSTAR          = -.33307E-1
MEAN_MOTION_DOT = -.1651812E-1
MEAN_MOTION_DDOT = 0

CCSDS_OMM_VERS = 2.0
CREATION_DATE  = 
ORIGINATOR     = 

OBJECT_NAME    = STARLINK-36844
OBJECT_ID      = 2026-044S
CENTER_NAME    = EARTH
REF_FRAME      = TEME
TIME_SYSTEM    = UTC
MEAN_ELEMENT_THEORY = SGP/SGP4

EPOCH          = 2026-04-05T12:00:02.998944
MEAN_MOTION    = 15.46884169
ECCENTRICITY   = .0002091
INCLINATION    = 97.2857
RA_OF_ASC_NODE = 56.8319
ARG_OF_PERICENTER = 99.7399
MEAN_ANOMALY   = 202.0728

EPHEMERIS_TYPE = 0
CLASSIFICATION_TYPE = U
NORAD_CAT_ID   = 68117
ELEMENT_SET_NO = 999
REV_AT_EPOCH   = 566
BSTAR          = -.4332E-1
MEAN_MOTION_DOT = -.1949E-1
MEAN_MOTION_DDOT = 0

CCSDS_OMM_VERS = 2.0
CREATION_DATE  = 
ORIGINATOR     = 

OBJECT_NAME    = STARLINK-36789
OBJECT_ID      = 2026-044T
CENTER_NAME    = EARTH
REF_FRAME      = TEME
TIME_SYSTEM    = UTC
MEAN_ELEMENT_THEORY = SGP/SGP4

EPOCH          = 2026-04-05T12:00:02.998944
MEAN_MOTION    = 15.46569036
ECCENTRICITY   = .0001981
INCLINATION    = 97.2858
RA_OF_ASC_NODE = 56.8409
ARG_OF_PERICENTER = 102.7157
MEAN_ANOMALY   = 218.9070

EPHEMERIS_TYPE = 0
CLASSIFICATION_TYPE = U
NORAD_CAT_ID   = 68118
ELEMENT_SET_NO = 999
REV_AT_EPOCH   = 566
BSTAR          = -.43883E-1
MEAN_MOTION_DOT = -.1952425E-1
MEAN_MOTION_DDOT = 0

CCSDS_OMM_VERS = 2.0
CREATION_DATE  = 
ORIGINATOR     = 

OBJECT_NAME    = STARLINK-36850
OBJECT_ID      = 2026-044U
CENTER_NAME    = EARTH
REF_FRAME      = TEME
TIME_SYSTEM    = UTC
MEAN_ELEMENT_THEORY = SGP/SGP4

EPOCH          = 2026-04-05T12:00:02.998944
MEAN_MOTION    = 15.47508634
ECCENTRICITY   = .0002049
INCLINATION    = 97.2859
RA_OF_ASC_NODE = 56.8429
ARG_OF_PERICENTER = 104.2548
MEAN_ANOMALY   = 221.4197

EPHEMERIS_TYPE = 0
CLASSIFICATION_TYPE = U
NORAD_CAT_ID   = 68119
ELEMENT_SET_NO = 999
REV_AT_EPOCH   = 566
BSTAR          = -.42308E-1
MEAN_MOTION_DOT = -.1945597E-1
MEAN_MOTION_DDOT = 0

CCSDS_OMM_VERS = 2.0
CREATION_DATE  = 
ORIGINATOR     = 

OBJECT_NAME    = STARLINK-36868
OBJECT_ID      = 2026-044V
CENTER_NAME    = EARTH
REF_FRAME      = TEME
TIME_SYSTEM    = UTC
MEAN_ELEMENT_THEORY = SGP/SGP4

EPOCH          = 2026-04-05T12:00:02.998944
MEAN_MOTION    = 15.47128110
ECCENTRICITY   = .0001942
INCLINATION    = 97.2861
RA_OF_ASC_NODE = 56.8509
ARG_OF_PERICENTER = 101.6069
MEAN_ANOMALY   = 243.6024

EPHEMERIS_TYPE = 0
CLASSIFICATION_TYPE = U
NORAD_CAT_ID   = 68120
ELEMENT_SET_NO = 999
REV_AT_EPOCH   = 566
BSTAR          = -.43045E-1
MEAN_MOTION_DOT = -.1952592E-1
MEAN_MOTION_DDOT = 0

CCSDS_OMM_VERS = 2.0
CREATION_DATE  = 
ORIGINATOR     = 

OBJECT_NAME    = STARLINK-36855
OBJECT_ID      = 2026-044W
CENTER_NAME    = EARTH
REF_FRAME      = TEME
TIME_SYSTEM    = UTC
MEAN_ELEMENT_THEORY = SGP/SGP4

EPOCH          = 2026-04-05T12:00:02.998944
MEAN_MOTION    = 15.49589117
ECCENTRICITY   = .0001839
INCLINATION    = 97.2856
RA_OF_ASC_NODE = 56.8384
ARG_OF_PERICENTER = 118.1128
MEAN_ANOMALY   = 200.7624

EPHEMERIS_TYPE = 0
CLASSIFICATION_TYPE = U
NORAD_CAT_ID   = 68121
ELEMENT_SET_NO = 999
REV_AT_EPOCH   = 566
BSTAR          = -.26601E-1
MEAN_MOTION_DOT = -.1324517E-1
MEAN_MOTION_DDOT = 0

CCSDS_OMM_VERS = 2.0
CREATION_DATE  = 
ORIGINATOR     = 

OBJECT_NAME    = STARLINK-36366
OBJECT_ID      = 2026-044X
CENTER_NAME    = EARTH
REF_FRAME      = TEME
TIME_SYSTEM    = UTC
MEAN_ELEMENT_THEORY = SGP/SGP4

EPOCH          = 2026-04-05T12:00:02.998944
MEAN_MOTION    = 15.49330498
ECCENTRICITY   = .0001585
INCLINATION    = 97.2994
RA_OF_ASC_NODE = 56.8410
ARG_OF_PERICENTER = 97.7172
MEAN_ANOMALY   = 230.0392

EPHEMERIS_TYPE = 0
CLASSIFICATION_TYPE = U
NORAD_CAT_ID   = 68122
ELEMENT_SET_NO = 999
REV_AT_EPOCH   = 571
BSTAR          = -.60504E-2
MEAN_MOTION_DOT = -.317829E-2
MEAN_MOTION_DDOT = 0

CCSDS_OMM_VERS = 2.0
CREATION_DATE  = 
ORIGINATOR     = 

OBJECT_NAME    = STARLINK-36922
OBJECT_ID      = 2026-044Y
CENTER_NAME    = EARTH
REF_FRAME      = TEME
TIME_SYSTEM    = UTC
MEAN_ELEMENT_THEORY = SGP/SGP4

EPOCH          = 2026-04-05T12:00:02.998944
MEAN_MOTION    = 15.49266840
ECCENTRICITY   = .0001857
INCLINATION    = 97.2995
RA_OF_ASC_NODE = 56.8521
ARG_OF_PERICENTER = 79.8802
MEAN_ANOMALY   = 273.0998

EPHEMERIS_TYPE = 0
CLASSIFICATION_TYPE = U
NORAD_CAT_ID   = 68123
ELEMENT_SET_NO = 999
REV_AT_EPOCH   = 571
BSTAR          = -.17427E-2
MEAN_MOTION_DOT = -.94012E-3
MEAN_MOTION_DDOT = 0

CCSDS_OMM_VERS = 2.0
CREATION_DATE  = 
ORIGINATOR     = 

OBJECT_NAME    = STARLINK-36938
OBJECT_ID      = 2026-044Z
CENTER_NAME    = EARTH
REF_FRAME      = TEME
TIME_SYSTEM    = UTC
MEAN_ELEMENT_THEORY = SGP/SGP4

EPOCH          = 2026-04-05T10:02:49.675200
MEAN_MOTION    = 15.75259203
ECCENTRICITY   = .0003497
INCLINATION    = 97.2860
RA_OF_ASC_NODE = 56.9675
ARG_OF_PERICENTER = 87.2467
MEAN_ANOMALY   = 272.9199

EPHEMERIS_TYPE = 0
CLASSIFICATION_TYPE = U
NORAD_CAT_ID   = 68124
ELEMENT_SET_NO = 999
REV_AT_EPOCH   = 569
BSTAR          = .17494E-2
MEAN_MOTION_DOT = .270074E-2
MEAN_MOTION_DDOT = 0

