STARLINK-36937          
1 68113U 26044N   26095.50003471 -.01955941  00000+0 -45076-1 0  9995
2 68113  97.2856  56.8188 0001876 102.2089 165.6282 15.45852096  5660
STARLINK-36229          
1 68114U 26044P   26095.50003471 -.01952219  00000+0 -45959-1 0  9991
2 68114  97.2857  56.8171 0001825  98.9501 160.7177 15.45226019  5713
STARLINK-36392          
1 68115U 26044Q   26095.50003471 -.02016289  00000+0 -43917-1 0  9993
2 68115  97.2857  56.7933 0002219 104.0277 112.8668 15.47579239  5716
STARLINK-36805          
1 68116U 26044R   26095.50003471 -.01651812  00000+0 -33307-1 0  9992
2 68116  97.2855  56.8072 0002087 124.9114 125.2607 15.49653906  5711
STARLINK-36844          
1 68117U 26044S   26095.50003471 -.01949000  00000+0 -43320-1 0  9998
2 68117  97.2857  56.8319 0002091  99.7399 202.0728 15.46884169  5663
STARLINK-36789          
1 68118U 26044T   26095.50003471 -.01952425  00000+0 -43883-1 0  9998
2 68118  97.2858  56.8409 0001981 102.7157 218.9070 15.46569036  5668
STARLINK-36850          
1 68119U 26044U   26095.50003471 -.01945597  00000+0 -42308-1 0  9992
2 68119  97.2859  56.8429 0002049 104.2548 221.4197 15.47508634  5666
STARLINK-36868          
1 68120U 26044V   26095.50003471 -.01952592  00000+0 -43045-1 0  9996
2 68120  97.2861  56.8509 0001942 101.6069 243.6024 15.47128110  5662
STARLINK-36855          
1 68121U 26044W   26095.50003471 -.01324517  00000+0 -26601-1 0  9996
2 68121  97.2856  56.8384 0001839 118.1128 200.7624 15.49589117  5662
STARLINK-36366          
1 68122U 26044X   26095.50003471 -.00317829  00000+0 -60504-2 0  9995
2 68122  97.2994  56.8410 0001585  97.7172 230.0392 15.49330498  5715
STARLINK-36922          
1 68123U 26044Y   26095.50003471 -.00094012  00000+0 -17427-2 0  9998
2 68123  97.2995  56.8521 0001857  79.8802 273.0998 15.49266840  5711
STARLINK-36938          
1 68124U 26044Z   26095.41863050  .00270074  00000+0  17494-2 0  9992
2 68124  97.2860  56.9675 0003497  87.2467 272.9199 15.75259203  5698
